NORAD_CAT_ID,OBJECT_NAME,OBJECT_TYPE,EPOCH,MEAN_MOTION,ECCENTRICITY,INCLINATION,RA_OF_ASC_NODE,ARG_OF_PERICENTER,MEAN_ANOMALY,BSTAR,MEAN_MOTION_DOT,MEAN_MOTION_DDOT,TLE_LINE0,TLE_LINE1,TLE_LINE2,SEMIMAJOR_AXIS,PERIOD,APOGEE,PERIGEE,DECAYED
52609.0,STARLINK-3997,PAYLOAD,2022-08-20 14:00:01,15.08827715,0.0001747,53.2198,342.0554,45.5354,270.1969,-0.0002203,-3.791e-05,0.0,0 STARLINK-3997,1 52609U 22052M   22232.58334491 -.00003791  00000-0 -22030-3 0  9993,2 52609  53.2198 342.0554 0001747  45.5354 270.1969 15.08827715  1302,6917.918000000002,95.438,540.991,538.5740000000002,0.0
52609.0,STARLINK-3997,PAYLOAD,2022-08-20 20:00:01,15.08827999,0.0001744,53.2197,340.9332,42.9604,191.5164,0.0010728,0.00016821,0.0,0 STARLINK-3997,1 52609U 22052M   22232.83335648  .00016821  00000-0  10728-2 0  9992,2 52609  53.2197 340.9332 0001744  42.9604 191.5164 15.08827999 15445,6917.917,95.438,540.989,538.576,0.0
52609.0,STARLINK-3997,PAYLOAD,2022-08-20 22:00:00,15.0884886,0.0001699,53.2197,340.5587,43.8369,283.4679,-0.0015683,-0.00025167,0.0,0 STARLINK-3997,1 52609U 22052M   22232.91667824 -.00025167  00000-0 -15683-2 0  9995,2 52609  53.2197 340.5587 0001699  43.8369 283.4679 15.08848860  1302,6917.853,95.437,540.894,538.543,0.0
52609.0,STARLINK-3997,PAYLOAD,2022-08-21 12:00:00,15.08861299,0.000161,53.22,337.9403,45.6297,211.9545,-0.0040308,-0.00063907,0.0,0 STARLINK-3997,1 52609U 22052M   22233.50001157 -.00063907  00000-0 -40308-2 0  9998,2 52609  53.2200 337.9403 0001610  45.6297 211.9545 15.08861299 15547,6917.815,95.436,540.794,538.567,0.0
52609.0,STARLINK-3997,PAYLOAD,2022-08-21 14:00:01,15.08845916,0.0001675999999999,53.2199,337.5666,43.7401,306.7479,-0.0030104,-0.00047888,0.0,0 STARLINK-3997,1 52609U 22052M   22233.58334491 -.00047888  00000-0 -30104-2 0  9999,2 52609  53.2199 337.5666 0001676  43.7401 306.7479 15.08845916  1305,6917.861999999999,95.437,540.887,538.568,0.0
52609.0,STARLINK-3997,PAYLOAD,2022-08-21 20:00:01,15.08822159,0.0001625,53.2196,336.4443,40.0384,229.1385,0.00011085,1.476e-05,0.0,0 STARLINK-3997,1 52609U 22052M   22233.83334491  .00001476  00000-0  11085-3 0  9996,2 52609  53.2196 336.4443 0001625  40.0384 229.1385 15.08822159 15591,6917.935,95.439,540.924,538.6759999999998,0.0
52609.0,STARLINK-3997,PAYLOAD,2022-08-21 22:00:00,15.08837142,0.0001587,53.2197,336.0697,41.3643,320.7018,-0.001919,-0.00030697,0.0,0 STARLINK-3997,1 52609U 22052M   22233.91667824 -.00030697  00000-0 -19190-2 0  9997,2 52609  53.2197 336.0697 0001587  41.3643 320.7018 15.08837142  1301,6917.889,95.438,540.852,538.656,0.0
52609.0,STARLINK-3997,PAYLOAD,2022-08-22 12:00:00,15.08839455,0.0001564,53.2197,333.4517,43.8503,248.4793,-0.0011699,-0.00018858,0.0,0 STARLINK-3997,1 52609U 22052M   22234.50001157 -.00018858  00000-0 -11699-2 0  9995,2 52609  53.2197 333.4517 0001564  43.8503 248.4793 15.08839455  1305,6917.882,95.438,540.8290000000002,538.665,0.0
52609.0,STARLINK-3997,PAYLOAD,2022-08-22 22:00:00,15.08852063,0.0001565999999999,53.2194,331.581,42.3089,354.4988,-0.001964,-0.00031419,0.0,0 STARLINK-3997,1 52609U 22052M   22234.91667824 -.00031419  00000-0 -19640-2 0  9991,2 52609  53.2194 331.5810 0001566  42.3089 354.4988 15.08852063  1306,6917.844,95.437,540.7919999999998,538.625,0.0
52609.0,STARLINK-3997,PAYLOAD,2022-08-23 04:00:00,15.08814878,0.0001434,53.2194,330.4579,47.8235,267.6882,0.003046,0.00048489,0.0,0 STARLINK-3997,1 52609U 22052M   22235.16667824  .00048489  00000-0  30460-2 0  9995,2 52609  53.2194 330.4579 0001434  47.8235 267.6882 15.08814878 15803,6917.956999999999,95.439,540.814,538.83,0.0
52609.0,STARLINK-3997,PAYLOAD,2022-08-23 14:00:01,15.08839498,0.0001643,53.2194,328.5895,43.431,16.567,-9.004700000000001e-05,-1.721e-05,0.0,0 STARLINK-3997,1 52609U 22052M   22235.58334491 -.00001721  00000-0 -90047-4 0  9991,2 52609  53.2194 328.5895 0001643  43.4310  16.5670 15.08839498  1301,6917.882,95.438,540.884,538.61,0.0
52609.0,STARLINK-3997,PAYLOAD,2022-08-23 20:00:01,15.08853982,0.0001612,53.219,327.4669,40.6854,298.0025,-0.0011984,-0.00019317,0.0,0 STARLINK-3997,1 52609U 22052M   22235.83334491 -.00019317  00000-0 -11984-2 0  9990,2 52609  53.2190 327.4669 0001612  40.6854 298.0025 15.08853982 15908,6917.8380000000025,95.437,540.818,538.587,0.0
52609.0,STARLINK-3997,PAYLOAD,2022-08-23 22:00:01,15.08858938,0.0001574,53.2191,327.0923,43.1179,28.5323,-0.0020472999999999,-0.0003273999999999,0.0,0 STARLINK-3997,1 52609U 22052M   22235.91668981 -.00032740  00000-0 -20473-2 0  9991,2 52609  53.2191 327.0923 0001574  43.1179  28.5323 15.08858938  1305,6917.823,95.436,540.776,538.599,0.0
52609.0,STARLINK-3997,PAYLOAD,2022-08-24 12:00:00,15.08856155,0.0001641999999999,53.219,324.4746,43.9023,317.9931,-0.0012366,-0.00019923,0.0,0 STARLINK-3997,1 52609U 22052M   22236.50001157 -.00019923  00000-0 -12366-2 0  9993,2 52609  53.2190 324.4746 0001642  43.9023 317.9931 15.08856155 16002,6917.831,95.437,540.832,538.56,0.0
52609.0,STARLINK-3997,PAYLOAD,2022-08-24 14:00:01,15.08844042,0.0001689,53.2191,324.1008,43.2985,51.5017,0.00030412,4.556e-05,0.0,0 STARLINK-3997,1 52609U 22052M   22236.58334491  .00004556  00000-0  30412-3 0  9998,2 52609  53.2191 324.1008 0001689  43.2985  51.5017 15.08844042  1307,6917.868,95.437,540.901,538.565,0.0
52609.0,STARLINK-3997,PAYLOAD,2022-08-24 22:00:00,15.08879764,0.0001657,53.219,322.6036,43.7767,62.6237,-0.0042033999999999,-0.00066639,0.0,0 STARLINK-3997,1 52609U 22052M   22236.91667824 -.00066639  00000-0 -42034-2 0  9998,2 52609  53.2190 322.6036 0001657  43.7767  62.6237 15.08879764  1304,6917.759,95.435,540.77,538.4780000000002,0.0
52609.0,STARLINK-3997,PAYLOAD,2022-08-25 12:00:00,15.0883391,0.0001831,53.2189,319.986,46.4774,350.2089,-0.0011829,-0.00019062,0.0,0 STARLINK-3997,1 52609U 22052M   22237.50001157 -.00019062  00000-0 -11829-2 0  9991,2 52609  53.2189 319.9860 0001831  46.4774 350.2089 15.08833910 16151,6917.899,95.438,541.031,538.497,0.0
52609.0,STARLINK-3997,PAYLOAD,2022-08-25 14:00:01,15.08818797,0.0001859,53.2191,319.6122,45.3991,84.1863,0.00080957,0.00012612,0.0,0 STARLINK-3997,1 52609U 22052M   22237.58334491  .00012612  00000-0  80957-3 0  9990,2 52609  53.2191 319.6122 0001859  45.3991  84.1863 15.08818797  1301,6917.945,95.439,541.096,538.524,0.0
52609.0,STARLINK-3997,PAYLOAD,2022-08-25 22:00:00,15.08846737,0.0001774999999999,53.219,318.1149,45.9453,95.2168,-0.0016981,-0.00027217,0.0,0 STARLINK-3997,1 52609U 22052M   22237.91667824 -.00027217  00000-0 -16981-2 0  9990,2 52609  53.2190 318.1149 0001775  45.9453  95.2168 15.08846737  1305,6917.86,95.437,540.953,538.497,0.0
52609.0,STARLINK-3997,PAYLOAD,2022-08-26 04:00:01,15.08820327,0.0001728,53.219,316.9917,50.1122,9.8103,0.0024701,0.00039222,0.0,0 STARLINK-3997,1 52609U 22052M   22238.16668981  .00039222  00000-0  24701-2 0  9999,2 52609  53.2190 316.9917 0001728  50.1122   9.8103 15.08820327 16250,6917.941,95.439,541.001,538.61,0.0
52609.0,STARLINK-3997,PAYLOAD,2022-08-26 14:00:01,15.08827148,0.000195,53.2192,315.1235,44.5588,119.8552,0.0014443,0.00022765,0.0,0 STARLINK-3997,1 52609U 22052M   22238.58335648  .00022765  00000-0  14443-2 0  9992,2 52609  53.2192 315.1235 0001950  44.5588 119.8552 15.08827148  1304,6917.92,95.438,541.134,538.436,0.0
52609.0,STARLINK-3997,PAYLOAD,2022-08-26 20:00:01,15.08860276,0.0001904,53.219,314.0006,44.1829,38.856,-0.0016728,-0.00026827,0.0,0 STARLINK-3997,1 52609U 22052M   22238.83334491 -.00026827  00000-0 -16728-2 0  9998,2 52609  53.2190 314.0006 0001904  44.1829  38.8560 15.08860276 16358,6917.818,95.436,541.001,538.366,0.0
52609.0,STARLINK-3997,PAYLOAD,2022-08-26 22:00:00,15.08857413,0.0001837,53.2192,313.6261,46.0261,129.9155,-0.001449,-0.00023286,0.0,0 STARLINK-3997,1 52609U 22052M   22238.91667824 -.00023286  00000-0 -14490-2 0  9996,2 52609  53.2192 313.6261 0001837  46.0261 129.9155 15.08857413  1304,6917.8269999999975,95.436,540.9630000000002,538.4209999999998,0.0
52609.0,STARLINK-3997,PAYLOAD,2022-08-27 14:00:01,15.08844555,0.0001998,53.2193,310.6349,43.7433,155.4186,0.00080015,0.00012471,0.0,0 STARLINK-3997,1 52609U 22052M   22239.58334491  .00012471  00000-0  80015-3 0  9990,2 52609  53.2193 310.6349 0001998  43.7433 155.4186 15.08844555  1303,6917.866,95.437,541.114,538.349,0.0
52609.0,STARLINK-3997,PAYLOAD,2022-08-27 22:00:00,15.08853104,0.0001801,53.2192,309.1371,44.2181,166.5555,-0.0021428,-0.00034242,0.0,0 STARLINK-3997,1 52609U 22052M   22239.91667824 -.00034242  00000-0 -21428-2 0  9990,2 52609  53.2192 309.1371 0001801  44.2181 166.5555 15.08853104  1302,6917.84,95.437,540.951,538.4590000000002,0.0
52609.0,STARLINK-3997,PAYLOAD,2022-08-28 14:00:01,15.08827545,0.0001956999999999,53.2191,306.146,41.3308,192.6463,0.0023861,0.00037879,0.0,0 STARLINK-3997,1 52609U 22052M   22240.58334491  .00037879  00000-0  23861-2 0  9996,2 52609  53.2191 306.1460 0001957  41.3308 192.6463 15.08827545  1306,6917.918000000002,95.438,541.137,538.43,0.0
52609.0,STARLINK-3997,PAYLOAD,2022-08-28 20:00:01,15.08876409,0.0001821999999999,53.2188,305.0227,41.82,110.8454,-0.0046553,-0.00073694,0.0,0 STARLINK-3997,1 52609U 22052M   22240.83334491 -.00073694  00000-0 -46553-2 0  9994,2 52609  53.2188 305.0227 0001822  41.8200 110.8454 15.08876409 16657,6917.769,95.435,540.895,538.374,0.0
52609.0,STARLINK-3997,PAYLOAD,2022-08-28 22:00:00,15.08859051,0.0001733999999999,53.219,304.6481,42.5252,203.0483,-0.0033830999999999,-0.00053757,0.0,0 STARLINK-3997,1 52609U 22052M   22240.91667824 -.00053757  00000-0 -33831-2 0  9995,2 52609  53.2190 304.6481 0001734  42.5252 203.0483 15.08859051  1301,6917.821999999999,95.436,540.887,538.488,0.0
52609.0,STARLINK-3997,PAYLOAD,2022-08-29 04:00:00,15.08821588,0.0001659,53.219,303.5255,45.8606,118.4115,0.0013050999999999,0.00020533,0.0,0 STARLINK-3997,1 52609U 22052M   22241.16667824  .00020533  00000-0  13051-2 0  9999,2 52609  53.2190 303.5255 0001659  45.8606 118.4115 15.08821588 16708,6917.937,95.439,540.9490000000002,538.654,0.0
